GPS BIIR-2  (PRN 13)    
1 24876U 97035A   24278.96569139  .00000048  00000+0  00000+0 0  9992
2 24876  55.7047 122.8388 0084862  54.4358 306.4410  2.00561414199512
GPS BIIR-4  (PRN 20)    
1 26360U 00025A   24279.10728420 -.00000061  00000+0  00000+0 0  9998
2 26360  54.7548  44.4091 0039465 218.1605 333.0141  2.00571152178839
GPS BIIR-5  (PRN 22)    
1 26407U 00040A   24279.31365858  .00000016  00000+0  00000+0 0  9991
2 26407  55.0269 239.8020 0142121 296.1534 242.5298  2.00561786177511
GPS BIIR-8  (PRN 16)    
1 27663U 03005A   24279.60149792  .00000019  00000+0  00000+0 0  9992
2 27663  55.0644 239.6017 0138584  47.8282 118.7103  2.00568581158884
GPS BIIR-9  (PRN 21)    
1 27704U 03010A   24279.56773917 -.00000086  00000+0  00000+0 0  9996
2 27704  55.0733 349.3370 0255318 330.1793  27.5039  2.00567055157676
GPS BIIR-11 (PRN 19)    
1 28190U 04009A   24279.22257084 -.00000027  00000+0  00000+0 0  9995
2 28190  55.3602 300.6398 0098873 153.5609 252.8391  2.00556051150512
GPS BIIR-13 (PRN 02)    
1 28474U 04045A   24279.58830976 -.00000086  00000+0  00000+0 0  9991
2 28474  55.4030 349.7926 0164421 295.2537  62.0537  2.00562505145991
GPS BIIRM-1 (PRN 17)    
1 28874U 05038A   24279.20367410 -.00000024  00000+0  00000+0 0  9997
2 28874  55.4056 298.1054 0137429 285.8339 130.3465  2.00578054139409
GPS BIIRM-2 (PRN 31)    
1 29486U 06042A   24279.50025296  .00000030  00000+0  00000+0 0  9995
2 29486  54.6755 175.9184 0104775  41.7735 128.8811  2.00574443131967
GPS BIIRM-3 (PRN 12)    
1 29601U 06052A   24279.18226657  .00000015  00000+0  00000+0 0  9996
2 29601  55.0985 238.6039 0084974  83.6649 277.2771  2.00573693130979
GPS BIIRM-4 (PRN 15)    
1 32260U 07047A   24278.99026497  .00000032  00000+0  00000+0 0  9993
2 32260  53.6673 105.6999 0159185  77.8749 283.9664  2.00558967124372
GPS BIIRM-5 (PRN 29)    
1 32384U 07062A   24279.34179212 -.00000024  00000+0  00000+0 0  9993
2 32384  55.5473 298.9786 0028095 157.7731 225.2987  2.00553469123088
GPS BIIRM-6 (PRN 07)    
1 32711U 08012A   24277.90810048  .00000027  00000+0  00000+0 0  9994
2 32711  54.4496 174.7174 0189550 240.0869 118.0879  2.00571280121290
GPS BIIRM-8 (PRN 05)    
1 35752U 09043A   24279.39186050 -.00000046  00000+0  00000+0 0  9993
2 35752  55.7665  51.9084 0056076  75.8091 289.4973  2.00563100110932
GPS BIIF-1  (PRN 25)    
1 36585U 10022A   24279.25092816  .00000015  00000+0  00000+0 0  9993
2 36585  54.4123 233.5571 0116452  62.1031 318.8083  2.00557136105169
GPS BIIF-3  (PRN 24)    
1 38833U 12053A   24279.08800043  .00000032  00000+0  00000+0 0  9996
2 38833  53.5177 168.9798 0158455  57.7239 303.8867  2.00560334 87007
GPS BIIF-4  (PRN 27)    
1 39166U 13023A   24279.44864490 -.00000018  00000+0  00000+0 0  9995
2 39166  55.0188 294.1322 0124866  44.9328 316.1041  2.00562559 83443
GPS BIIF-5  (PRN 30)    
1 39533U 14008A   24278.44652381  .00000028  00000+0  00000+0 0  9990
2 39533  53.5992 174.6193 0073143 221.0427 138.4777  2.00574788 77232
GPS BIIF-6  (PRN 06)    
1 39741U 14026A   24278.72935785 -.00000090  00000+0  00000+0 0  9994
2 39741  56.6989 355.6256 0032674 313.0229  46.7584  2.00560579 76093
GPS BIIF-7  (PRN 09)    
1 40105U 14045A   24278.81846687  .00000042  00000+0  00000+0 0  9999
2 40105  54.9802 113.2264 0029459 115.8912 244.4867  2.00573812 73637
GPS BIIF-8  (PRN 03)    
1 40294U 14068A   24277.69823795 -.00000047  00000+0  00000+0 0  9999
2 40294  56.5154  55.0133 0055001  65.6390 294.9278  2.00566849 72745
GPS BIIF-9  (PRN 26)    
1 40534U 15013A   24279.32409844  .00000014  00000+0  00000+0 0  9997
2 40534  53.3100 229.8342 0092007  30.9166 329.6008  2.00559011 69391
GPS BIIF-10 (PRN 08)    
1 40730U 15033A   24279.48577348 -.00000018  00000+0  00000+0 0  9994
2 40730  54.5010 292.5492 0096553  19.8641 340.5383  2.00561456 67560
GPS BIIF-11 (PRN 10)    
1 41019U 15062A   24279.54621950 -.00000038  00000+0  00000+0 0  9995
2 41019  56.4963  54.7957 0099270 224.8748 134.3169  2.00562813 65408
GPS BIIF-12 (PRN 32)    
1 41328U 16007A   24279.12930860  .00000042  00000+0  00000+0 0  9999
2 41328  55.1725 114.0807 0080845 238.4110 120.8695  2.00556538 63408
GPS BIII-1  (PRN 04)    
1 43873U 18109A   24278.79424326  .00000045  00000+0  00000+0 0  9991
2 43873  55.3403 116.6952 0030996 191.7620 177.5511  2.00560545 42639
GPS BIII-2  (PRN 18)    
1 44506U 19056A   24279.40156226 -.00000089  00000+0  00000+0 0  9996
2 44506  55.8318 355.7267 0047767 191.7338 161.4099  2.00557239 37631
GPS BIII-3  (PRN 23)    
1 45854U 20041A   24279.48718778 -.00000042  00000+0  00000+0 0  9992
2 45854  56.2168  53.1013 0048181 194.3482 156.7115  2.00571327 31605
GPS BIII-4  (PRN 14)    
1 46826U 20078A   24278.99633523  .00000012  00000+0  00000+0 0  9997
2 46826  54.1430 235.9476 0049828 199.0204 132.7425  2.00560544 29064
GPS BIII-5  (PRN 11)    
1 48859U 21054A   24278.25384656 -.00000095  00000+0  00000+0 0  9991
2 48859  55.3593 357.3733 0018922 222.1466 115.3069  2.00551985 24299
GPS BIII-6  (PRN 28)    
1 55268U 23009A   24279.47357019  .00000032  00000+0  00000+0 0  9993
2 55268  55.0840 172.8455 0001998  68.1221 115.2667  2.00556987 12811
